{
  "type": "FeatureCollection",
  "features": [
    {
      "type": "Feature",
      "properties": {
        "norad_id": 31186,
        "name": "FENGYUN 1C DEB",
        "group": "fengyun-1c-debris",
        "lat": 35.50021518374327,
        "lon": 82.13531606439237,
        "alt_km": 838.5701186775614,
        "timestamp": "2025-12-06T07:31:40.517726+00:00",
        "meta_object_name": "FENGYUN 1C DEB",
        "meta_object_id": "1999-025BJQ",
        "meta_epoch": "2025-12-02T00:56:26.242368",
        "meta_mean_motion": 14.1287731,
        "meta_eccentricity": 0.00265333,
        "meta_inclination": 99.1774,
        "meta_ra_of_asc_node": 251.1349,
        "meta_arg_of_pericenter": 91.9141,
        "meta_mean_anomaly": 282.1326,
        "meta_ephemeris_type": 0,
        "meta_classification_type": "U",
        "meta_norad_cat_id": 31186,
        "meta_element_set_no": 999,
        "meta_rev_at_epoch": 95954,
        "meta_bstar": 0.0005366123,
        "meta_mean_motion_dot": 9.55e-06,
        "meta_mean_motion_ddot": 0,
        "tle_line1": "1 31186U 99025BJQ 25336.03919262  .00000955  00000+0  53661-3 0  9997",
        "tle_line2": "2 31186  99.1774 251.1349 0026533  91.9141 282.1326 14.12877310959547"
      },
      "geometry": {
        "type": "Point",
        "coordinates": [
          82.13531606439237,
          35.50021518374327
        ]
      }
    },
    {
      "type": "Feature",
      "properties": {
        "norad_id": 31187,
        "name": "FENGYUN 1C DEB",
        "group": "fengyun-1c-debris",
        "lat": 46.669139233768774,
        "lon": -166.91036088293095,
        "alt_km": 842.7243957343635,
        "timestamp": "2025-12-06T07:31:40.517736+00:00",
        "meta_object_name": "FENGYUN 1C DEB",
        "meta_object_id": "1999-025BJR",
        "meta_epoch": "2025-12-04T09:12:55.501344",
        "meta_mean_motion": 14.58818498,
        "meta_eccentricity": 0.0221946,
        "meta_inclination": 99.2417,
        "meta_ra_of_asc_node": 200.8812,
        "meta_arg_of_pericenter": 249.2029,
        "meta_mean_anomaly": 108.5265,
        "meta_ephemeris_type": 0,
        "meta_classification_type": "U",
        "meta_norad_cat_id": 31187,
        "meta_element_set_no": 999,
        "meta_rev_at_epoch": 68978,
        "meta_bstar": 0.0080711,
        "meta_mean_motion_dot": 0.00053507,
        "meta_mean_motion_ddot": 0,
        "tle_line1": "1 31187U 99025BJR 25338.38397571  .00053507  00000+0  80711-2 0  9997",
        "tle_line2": "2 31187  99.2417 200.8812 0221946 249.2029 108.5265 14.58818498689788"
      },
      "geometry": {
        "type": "Point",
        "coordinates": [
          -166.91036088293095,
          46.669139233768774
        ]
      }
    },
    {
      "type": "Feature",
      "properties": {
        "norad_id": 31188,
        "name": "FENGYUN 1C DEB",
        "group": "fengyun-1c-debris",
        "lat": -60.638359736283505,
        "lon": 64.02137471479523,
        "alt_km": 782.6838876598049,
        "timestamp": "2025-12-06T07:31:40.517747+00:00",
        "meta_object_name": "FENGYUN 1C DEB",
        "meta_object_id": "1999-025BJS",
        "meta_epoch": "2025-12-05T03:26:03.547104",
        "meta_mean_motion": 14.23746039,
        "meta_eccentricity": 0.00594994,
        "meta_inclination": 98.7496,
        "meta_ra_of_asc_node": 46.9698,
        "meta_arg_of_pericenter": 271.5057,
        "meta_mean_anomaly": 149.9815,
        "meta_ephemeris_type": 0,
        "meta_classification_type": "U",
        "meta_norad_cat_id": 31188,
        "meta_element_set_no": 999,
        "meta_rev_at_epoch": 96228,
        "meta_bstar": 0.0031565228,
        "meta_mean_motion_dot": 7.306e-05,
        "meta_mean_motion_ddot": 0,
        "tle_line1": "1 31188U 99025BJS 25339.14309661  .00007306  00000+0  31565-2 0  9995",
        "tle_line2": "2 31188  98.7496  46.9698 0059499 271.5057 149.9815 14.23746039962284"
      },
      "geometry": {
        "type": "Point",
        "coordinates": [
          64.02137471479523,
          -60.638359736283505
        ]
      }
    },
    {
      "type": "Feature",
      "properties": {
        "norad_id": 31190,
        "name": "FENGYUN 1C DEB",
        "group": "fengyun-1c-debris",
        "lat": -22.140647387648986,
        "lon": 169.6123605254916,
        "alt_km": 874.050317277085,
        "timestamp": "2025-12-06T07:31:40.517757+00:00",
        "meta_object_name": "FENGYUN 1C DEB",
        "meta_object_id": "1999-025BJU",
        "meta_epoch": "2025-12-05T06:36:27.809568",
        "meta_mean_motion": 14.03571552,
        "meta_eccentricity": 0.00674418,
        "meta_inclination": 98.8191,
        "meta_ra_of_asc_node": 352.2271,
        "meta_arg_of_pericenter": 280.5875,
        "meta_mean_anomaly": 78.7701,
        "meta_ephemeris_type": 0,
        "meta_classification_type": "U",
        "meta_norad_cat_id": 31190,
        "meta_element_set_no": 999,
        "meta_rev_at_epoch": 95442,
        "meta_bstar": 0.0011301258,
        "meta_mean_motion_dot": 1.766e-05,
        "meta_mean_motion_ddot": 0,
        "tle_line1": "1 31190U 99025BJU 25339.27532187  .00001766  00000+0  11301-2 0  9993",
        "tle_line2": "2 31190  98.8191 352.2271 0067441 280.5875  78.7701 14.03571552954428"
      },
      "geometry": {
        "type": "Point",
        "coordinates": [
          169.6123605254916,
          -22.140647387648986
        ]
      }
    },
    {
      "type": "Feature",
      "properties": {
        "norad_id": 31191,
        "name": "FENGYUN 1C DEB",
        "group": "fengyun-1c-debris",
        "lat": -61.951315433938134,
        "lon": -102.10206473205483,
        "alt_km": 754.4939956812568,
        "timestamp": "2025-12-06T07:31:40.517767+00:00",
        "meta_object_name": "FENGYUN 1C DEB",
        "meta_object_id": "1999-025BJV",
        "meta_epoch": "2025-12-04T10:49:15.388320",
        "meta_mean_motion": 14.40761931,
        "meta_eccentricity": 0.0091939,
        "meta_inclination": 98.7823,
        "meta_ra_of_asc_node": 239.1188,
        "meta_arg_of_pericenter": 219.3514,
        "meta_mean_anomaly": 140.097,
        "meta_ephemeris_type": 0,
        "meta_classification_type": "U",
        "meta_norad_cat_id": 31191,
        "meta_element_set_no": 999,
        "meta_rev_at_epoch": 97893,
        "meta_bstar": 0.00073089,
        "meta_mean_motion_dot": 2.409e-05,
        "meta_mean_motion_ddot": 0,
        "tle_line1": "1 31191U 99025BJV 25338.45087255  .00002409  00000+0  73089-3 0  9991",
        "tle_line2": "2 31191  98.7823 239.1188 0091939 219.3514 140.0970 14.40761931978935"
      },
      "geometry": {
        "type": "Point",
        "coordinates": [
          -102.10206473205483,
          -61.951315433938134
        ]
      }
    },
    {
      "type": "Feature",
      "properties": {
        "norad_id": 31192,
        "name": "FENGYUN 1C DEB",
        "group": "fengyun-1c-debris",
        "lat": -62.5414187329381,
        "lon": -18.967734920637227,
        "alt_km": 1015.1433680532864,
        "timestamp": "2025-12-06T07:31:40.517789+00:00",
        "meta_object_name": "FENGYUN 1C DEB",
        "meta_object_id": "1999-025BJW",
        "meta_epoch": "2025-12-05T04:48:04.046112",
        "meta_mean_motion": 14.20941819,
        "meta_eccentricity": 0.02595544,
        "meta_inclination": 98.5523,
        "meta_ra_of_asc_node": 323.1201,
        "meta_arg_of_pericenter": 125.5317,
        "meta_mean_anomaly": 237.0366,
        "meta_ephemeris_type": 0,
        "meta_classification_type": "U",
        "meta_norad_cat_id": 31192,
        "meta_element_set_no": 999,
        "meta_rev_at_epoch": 96636,
        "meta_bstar": 0.00043242472,
        "meta_mean_motion_dot": 1.271e-05,
        "meta_mean_motion_ddot": 0,
        "tle_line1": "1 31192U 99025BJW 25339.20004683  .00001271  00000+0  43242-3 0  9994",
        "tle_line2": "2 31192  98.5523 323.1201 0259554 125.5317 237.0366 14.20941819966362"
      },
      "geometry": {
        "type": "Point",
        "coordinates": [
          -18.967734920637227,
          -62.5414187329381
        ]
      }
    },
    {
      "type": "Feature",
      "properties": {
        "norad_id": 31194,
        "name": "FENGYUN 1C DEB",
        "group": "fengyun-1c-debris",
        "lat": -36.85236007613104,
        "lon": 42.32454522360024,
        "alt_km": 769.3167314574985,
        "timestamp": "2025-12-06T07:31:40.517800+00:00",
        "meta_object_name": "FENGYUN 1C DEB",
        "meta_object_id": "1999-025BJY",
        "meta_epoch": "2025-12-05T03:46:07.202784",
        "meta_mean_motion": 14.36577818,
        "meta_eccentricity": 0.00578418,
        "meta_inclination": 98.9636,
        "meta_ra_of_asc_node": 227.9153,
        "meta_arg_of_pericenter": 301.5869,
        "meta_mean_anomaly": 57.9678,
        "meta_ephemeris_type": 0,
        "meta_classification_type": "U",
        "meta_norad_cat_id": 31194,
        "meta_element_set_no": 999,
        "meta_rev_at_epoch": 97018,
        "meta_bstar": 0.0022979144,
        "meta_mean_motion_dot": 6.843e-05,
        "meta_mean_motion_ddot": 0,
        "tle_line1": "1 31194U 99025BJY 25339.15702781  .00006843  00000+0  22979-2 0  9997",
        "tle_line2": "2 31194  98.9636 227.9153 0057841 301.5869  57.9678 14.36577818970184"
      },
      "geometry": {
        "type": "Point",
        "coordinates": [
          42.32454522360024,
          -36.85236007613104
        ]
      }
    }
  ]
}